[{"OBJECT_NAME":"STARLINK-5038","OBJECT_ID":"2023-064AA","EPOCH":"2026-03-09T14:14:00.460896","MEAN_MOTION":14.98345369,"ECCENTRICITY":0.0002868,"INCLINATION":70.0006,"RA_OF_ASC_NODE":124.7539,"ARG_OF_PERICENTER":262.8669,"MEAN_ANOMALY":97.2164,"EPHEMERIS_TYPE":0,"CLASSIFICATION_TYPE":"U","NORAD_CAT_ID":56472,"ELEMENT_SET_NO":999,"REV_AT_EPOCH":15572,"BSTAR":0.00014923,"MEAN_MOTION_DOT":1.689e-5,"MEAN_MOTION_DDOT":0},{"OBJECT_NAME":"PSLV R\/B","OBJECT_ID":"2007-001E","EPOCH":"2026-03-09T22:10:17.317056","MEAN_MOTION":14.97920804,"ECCENTRICITY":0.00208593,"INCLINATION":98.0304,"RA_OF_ASC_NODE":98.4358,"ARG_OF_PERICENTER":74.2404,"MEAN_ANOMALY":286.1116,"EPHEMERIS_TYPE":0,"CLASSIFICATION_TYPE":"U","NORAD_CAT_ID":29713,"ELEMENT_SET_NO":999,"REV_AT_EPOCH":3805,"BSTAR":0.00025269605,"MEAN_MOTION_DOT":2.927e-5,"MEAN_MOTION_DDOT":0}]
